[{"OBJECT_NAME":"GEOSCAN 4 (RS92S4)","OBJECT_ID":"2025-155S","EPOCH":"2026-03-09T21:50:07.724832","MEAN_MOTION":15.30369837,"ECCENTRICITY":0.00070968,"INCLINATION":97.4465,"RA_OF_ASC_NODE":37.7626,"ARG_OF_PERICENTER":154.7045,"MEAN_ANOMALY":205.4544,"EPHEMERIS_TYPE":0,"CLASSIFICATION_TYPE":"U","NORAD_CAT_ID":64892,"ELEMENT_SET_NO":999,"REV_AT_EPOCH":6562,"BSTAR":0.00068609503,"MEAN_MOTION_DOT":0.00020121,"MEAN_MOTION_DDOT":0},{"OBJECT_NAME":"STARLINK-35807","OBJECT_ID":"2025-254L","EPOCH":"2026-03-09T17:55:02.013312","MEAN_MOTION":15.30194012,"ECCENTRICITY":9.05e-5,"INCLINATION":53.1576,"RA_OF_ASC_NODE":232.243,"ARG_OF_PERICENTER":70.768,"MEAN_ANOMALY":289.3418,"EPHEMERIS_TYPE":0,"CLASSIFICATION_TYPE":"U","NORAD_CAT_ID":66358,"ELEMENT_SET_NO":999,"REV_AT_EPOCH":1898,"BSTAR":0.00088349964,"MEAN_MOTION_DOT":0.00025894,"MEAN_MOTION_DDOT":0}]
